<?xml version="1.0" ?> <gpx> <trk> <trkseg> <trkpt lat="49.28023030" lon="-123.00573786"/> <trkpt lat="49.28023906" lon="-123.00579291"/> <trkpt lat="49.28024968" lon="-123.00588755"/> <trkpt lat="49.28026235" lon="-123.00601399"/> <trkpt lat="49.28026079" lon="-123.00609672"/> <trkpt lat="49.28026476" lon="-123.00619404"/> <trkpt lat="49.28025384" lon="-123.00630123"/> <trkpt lat="49.28025317" lon="-123.00640737"/> <trkpt lat="49.28023632" lon="-123.00654709"/> <trkpt lat="49.28022458" lon="-123.00668666"/> <trkpt lat="49.28021313" lon="-123.00682965"/> <trkpt lat="49.28019951" lon="-123.00697247"/> <trkpt lat="49.28017796" lon="-123.00715204"/> <trkpt lat="49.28015524" lon="-123.00734430"/> <trkpt lat="49.28014022" lon="-123.00751987"/> <trkpt lat="49.28012810" lon="-123.00770365"/> <trkpt lat="49.28011616" lon="-123.00787863"/> <trkpt lat="49.28011490" lon="-123.00805988"/> <trkpt lat="49.28011631" lon="-123.00825969"/> <trkpt lat="49.28011672" lon="-123.00844444"/> <trkpt lat="49.28012183" lon="-123.00862330"/> <trkpt lat="49.28011350" lon="-123.00880494"/> <trkpt lat="49.28013611" lon="-123.00896868"/> <trkpt lat="49.28015861" lon="-123.00913115"/> <trkpt lat="49.28017601" lon="-123.00930154"/> <trkpt lat="49.28019467" lon="-123.00947783"/> <trkpt lat="49.28018691" lon="-123.00964118"/> <trkpt lat="49.28018129" lon="-123.00980821"/> <trkpt lat="49.28018130" lon="-123.00995606"/> <trkpt lat="49.28018392" lon="-123.01011335"/> <trkpt lat="49.28019337" lon="-123.01025180"/> <trkpt lat="49.28019539" lon="-123.01041396"/> <trkpt lat="49.28018863" lon="-123.01055109"/> <trkpt lat="49.28018010" lon="-123.01068267"/> <trkpt lat="49.28016109" lon="-123.01081907"/> <trkpt lat="49.28013957" lon="-123.01092356"/> <trkpt lat="49.28010700" lon="-123.01104741"/> <trkpt lat="49.28006863" lon="-123.01113426"/> <trkpt lat="49.28002012" lon="-123.01120581"/> <trkpt lat="49.27996202" lon="-123.01126257"/> <trkpt lat="49.27988402" lon="-123.01137323"/> <trkpt lat="49.27978994" lon="-123.01147062"/> <trkpt lat="49.27968534" lon="-123.01151699"/> <trkpt lat="49.27957062" lon="-123.01151430"/> <trkpt lat="49.27944943" lon="-123.01150630"/> <trkpt lat="49.27932281" lon="-123.01150049"/> <trkpt lat="49.27922664" lon="-123.01147353"/> <trkpt lat="49.27913221" lon="-123.01146113"/> <trkpt lat="49.27904614" lon="-123.01145680"/> <trkpt lat="49.27896033" lon="-123.01144567"/> <trkpt lat="49.27885686" lon="-123.01143177"/> <trkpt lat="49.27875043" lon="-123.01141988"/> <trkpt lat="49.27866186" lon="-123.01141878"/> <trkpt lat="49.27857567" lon="-123.01141745"/> <trkpt lat="49.27851868" lon="-123.01148446"/> <trkpt lat="49.27846808" lon="-123.01154981"/> <trkpt lat="49.27842235" lon="-123.01169066"/> <trkpt lat="49.27838609" lon="-123.01184783"/> <trkpt lat="49.27836163" lon="-123.01198683"/> <trkpt lat="49.27834379" lon="-123.01214177"/> <trkpt lat="49.27833155" lon="-123.01230052"/> <trkpt lat="49.27831686" lon="-123.01246760"/> <trkpt lat="49.27831658" lon="-123.01263798"/> <trkpt lat="49.27831718" lon="-123.01281935"/> <trkpt lat="49.27832079" lon="-123.01300197"/> <trkpt lat="49.27831111" lon="-123.01316801"/> <trkpt lat="49.27830861" lon="-123.01332823"/> <trkpt lat="49.27830334" lon="-123.01348306"/> <trkpt lat="49.27829293" lon="-123.01362592"/> <trkpt lat="49.27827557" lon="-123.01376371"/> <trkpt lat="49.27824397" lon="-123.01387803"/> <trkpt lat="49.27821174" lon="-123.01398415"/> <trkpt lat="49.27816360" lon="-123.01408973"/> <trkpt lat="49.27810535" lon="-123.01417612"/> <trkpt lat="49.27803275" lon="-123.01423553"/> <trkpt lat="49.27795053" lon="-123.01426943"/> <trkpt lat="49.27786166" lon="-123.01428233"/> <trkpt lat="49.27777217" lon="-123.01428026"/> <trkpt lat="49.27767759" lon="-123.01427060"/> <trkpt lat="49.27760314" lon="-123.01428706"/> <trkpt lat="49.27751068" lon="-123.01430153"/> <trkpt lat="49.27739599" lon="-123.01429686"/> <trkpt lat="49.27726529" lon="-123.01428861"/> <trkpt lat="49.27718105" lon="-123.01429890"/> <trkpt lat="49.27709998" lon="-123.01430787"/> <trkpt lat="49.27702528" lon="-123.01434374"/> <trkpt lat="49.27694353" lon="-123.01437437"/> <trkpt lat="49.27686648" lon="-123.01439035"/> <trkpt lat="49.27676586" lon="-123.01440554"/> <trkpt lat="49.27667493" lon="-123.01442467"/> <trkpt lat="49.27654101" lon="-123.01444740"/> <trkpt lat="49.27639081" lon="-123.01445279"/> <trkpt lat="49.27623123" lon="-123.01444217"/> <trkpt lat="49.27611097" lon="-123.01446954"/> <trkpt lat="49.27600216" lon="-123.01449695"/> <trkpt lat="49.27592050" lon="-123.01454241"/> <trkpt lat="49.27584367" lon="-123.01461323"/> <trkpt lat="49.27579962" lon="-123.01471946"/> <trkpt lat="49.27577058" lon="-123.01484990"/> <trkpt lat="49.27574933" lon="-123.01500248"/> <trkpt lat="49.27573325" lon="-123.01514576"/> <trkpt lat="49.27572172" lon="-123.01531047"/> <trkpt lat="49.27570238" lon="-123.01547226"/> <trkpt lat="49.27569595" lon="-123.01565505"/> <trkpt lat="49.27568847" lon="-123.01582976"/> <trkpt lat="49.27568635" lon="-123.01602250"/> <trkpt lat="49.27570139" lon="-123.01622657"/> <trkpt lat="49.27570033" lon="-123.01641047"/> <trkpt lat="49.27570423" lon="-123.01661788"/> <trkpt lat="49.27571200" lon="-123.01678744"/> <trkpt lat="49.27570869" lon="-123.01697011"/> <trkpt lat="49.27570617" lon="-123.01708846"/> <trkpt lat="49.27569590" lon="-123.01720907"/> <trkpt lat="49.27569887" lon="-123.01731013"/> <trkpt lat="49.27569808" lon="-123.01742053"/> <trkpt lat="49.27570234" lon="-123.01751509"/> <trkpt lat="49.27569999" lon="-123.01760368"/> <trkpt lat="49.27570984" lon="-123.01770589"/> <trkpt lat="49.27572608" lon="-123.01779073"/> <trkpt lat="49.27573660" lon="-123.01788264"/> <trkpt lat="49.27574881" lon="-123.01792474"/> </trkseg> </trk> </gpx>